#aV2019  7 31  0  0  0.00000000     288 DD+AD WGS84 FIT  NGA
## 2064 259200.00000000   300.00000000 58695 0.0000000000000
+   31     1  2  3  5  6  7  8  9 10 11 12 13 14 15 16 17 18
+         19 20 21 22 23 24 25 26 27 28 29 30 31 32  0  0  0
+          0  0  0  0  0  0  0  0  0  0  0  0  0  0  0  0  0
+          0  0  0  0  0  0  0  0  0  0  0  0  0  0  0  0  0
+          0  0  0  0  0  0  0  0  0  0  0  0  0  0  0  0  0
++         2  2  2  2  2  2  2  2  2  2  2  2  2  2  2  2  2
++         2  2  2  2  2  2  2  2  2  2  2  2  2  2  0  0  0
++         0  0  0  0  0  0  0  0  0  0  0  0  0  0  0  0  0
++         0  0  0  0  0  0  0  0  0  0  0  0  0  0  0  0  0
++         0  0  0  0  0  0  0  0  0  0  0  0  0  0  0  0  0
%c cc cc ccc ccc cccc cccc cccc cccc ccccc ccccc ccccc ccccc
%c cc cc ccc ccc cccc cccc cccc cccc ccccc ccccc ccccc ccccc
%f  0.0000000  0.000000000  0.00000000000  0.000000000000000
%f  0.0000000  0.000000000  0.00000000000  0.000000000000000
%i    0    0    0    0      0      0      0      0         0
%i    0    0    0    0      0      0      0      0         0
/*      NGA, ST. LOUIS,MO.                                  
/*   EPHEMERIS COMPUTED FROM 1 DAYS OF DATA                 
/*   EPOCHA v5 SMOOTHER                                     
/*   G1762 IERS2010 SATAF SATAPC                            
*  2019  7 31 18 10  0.00000000
P  1  22258.077420  14512.563187  -3160.561733    -83.083929                    
V  1  -4237.327548     -7.164266 -31555.092892     -0.110360                    
P  2  -5801.124191 -17795.113050  19509.572890   -272.647703                    
V  2  21836.135060   8650.100414  14713.918725     -0.084989                    
P  3  12943.791990  14664.492673  17963.312253    177.667834                    
V  3   -780.421445  22898.765387 -17993.098100     -0.025857                    
P  5  -2685.033179 -26271.696586  -1569.286444     -0.299915                    
V  5   3190.061482  -2046.444468  31581.030850     -0.002541                    
P  6   9988.624978 -11422.364407  21840.798319    -10.733357                    
V  6  24220.991812  13211.966092  -4143.529743     -0.115680                    
P  7  24035.767263   4749.515991 -10565.492054    -75.700960                    
V  7  10829.853811   8661.001266  27333.170989     -0.077780                    
P  8   9893.440444  11418.788340 -21827.135264     -0.904246                    
V  8 -23286.055023  15076.696474  -2461.268473     -0.014480                    
P  9  23463.525530  -5760.265223  11001.688807    358.453696                    
V  9 -10375.997232   9833.202094  27169.302199     -0.086519                    
P 10 -11669.685628  15933.667354 -17596.812376    -35.627942                    
V 10  -2523.802041 -22465.096560 -18802.580578     -0.136074                    
P 11  21427.913510  10304.135863 -12082.328224   -547.183250                    
V 11 -14915.003846   3059.822836 -25223.257402      0.097702                    
P 12 -10236.646336 -18196.719025  16297.849698    218.561770                    
V 12   2139.089780 -20926.166463 -21577.972349     -0.036708                    
P 13   1268.245010 -16451.914135 -20909.327852    -51.957883                    
V 13  24206.251758 -10297.097128   9675.808334      0.018405                    
P 14 -14936.701930  17889.055037  12896.242758    -68.852852                    
V 14 -15215.752275   5241.831157 -25724.840093      0.018372                    
P 15 -11877.261516 -11039.735530 -21334.747998   -297.250790                    
V 15  20994.127803 -16279.695973  -2912.054656      0.025196                    
P 16   -441.683619  26286.719147  -1476.600136    -60.972672                    
V 16  -2562.780808   1527.831308  32452.131011     -0.032934                    
P 17  20521.039311 -15826.935876   6011.681638     98.514901                    
V 17   7195.178741  -1655.568726 -31110.029581      0.067637                    
P 18  16924.360311  17184.159236 -11757.378458     74.273651                    
V 18 -13771.986547  -3931.150010 -26604.674439      0.029819                    
P 19  17381.890625 -16669.574688  10947.596212   -286.972268                    
V 19  13695.837537  -4589.602196 -27911.823436      0.049317                    
P 20 -14856.124740   6527.158600 -21111.730055    526.239839                    
V 20  -4781.867258 -26281.925013  -4949.096331      0.001684                    
P 21 -22139.793240    645.614553 -13738.925832   -144.608013                    
V 21 -15994.761906 -10429.192248  24095.697244      0.067703                    
P 22  11585.949974  20587.809157  12455.143573   -738.238188                    
V 22  -1315.961108  15736.580901 -25156.701674     -0.047305                    
P 23  17619.210965   5489.752465  19578.199683   -174.527273                    
V 23 -19531.874237  14113.707055  13470.468197      0.018781                    
P 24 -21392.149444 -14922.375562  -6043.621098     -0.151612                    
V 24   8039.447683    349.419480 -29771.773718     -0.005123                    
P 25 -14842.337608  -4056.892586  21465.096787     -4.618338                    
V 25   -486.619090 -27696.383596  -5274.488278     -0.023789                    
P 26  -5138.136344  24272.138173   9210.515601      4.072706                    
V 26  -3672.711810 -11595.156100  28626.906945      0.091215                    
P 27  -3625.082801  17712.027235 -19462.347168    -10.209381                    
V 27 -21428.192995  11988.631273  15278.402091     -0.111683                    
P 28  12327.338647 -15598.199384 -17059.812031    765.594295                    
V 28    134.836384  22811.267306 -19963.951552     -0.006307                    
P 29 -22630.447186   1745.312342  13773.380182    137.028820                    
V 29  14684.279440  -9648.790880  25262.848246     -0.098318                    
P 30  18584.576571  -4674.138561 -18441.477955    -10.235839                    
V 30  19375.883602  13361.343276  15916.045003     -0.076993                    
P 31  -8954.528986  12418.220233  21714.545859     20.517032                    
V 31 -23948.123829 -13663.374265  -1623.941743     -0.026004                    
P 32 -19906.425601  16768.938781   5012.902024      1.308024                    
V 32  -6924.772167    857.996102 -30879.060203      0.148432                    
EOF
